[{"OBJECT_NAME":"GEESAT-1 05","OBJECT_ID":"2022-058E","EPOCH":"2026-03-09T23:16:32.924064","MEAN_MOTION":14.9973595,"ECCENTRICITY":0.00033659,"INCLINATION":49.9868,"RA_OF_ASC_NODE":292.6549,"ARG_OF_PERICENTER":123.1289,"MEAN_ANOMALY":236.998,"EPHEMERIS_TYPE":0,"CLASSIFICATION_TYPE":"U","NORAD_CAT_ID":52789,"ELEMENT_SET_NO":999,"REV_AT_EPOCH":20531,"BSTAR":0.00050752064,"MEAN_MOTION_DOT":6.088e-5,"MEAN_MOTION_DDOT":0},{"OBJECT_NAME":"STARLINK-5337","OBJECT_ID":"2023-010R","EPOCH":"2026-03-09T23:31:30.169056","MEAN_MOTION":14.98429662,"ECCENTRICITY":0.00030856,"INCLINATION":70.0002,"RA_OF_ASC_NODE":43.5513,"ARG_OF_PERICENTER":267.612,"MEAN_ANOMALY":92.4686,"EPHEMERIS_TYPE":0,"CLASSIFICATION_TYPE":"U","NORAD_CAT_ID":55284,"ELEMENT_SET_NO":999,"REV_AT_EPOCH":17281,"BSTAR":0.0039719726,"MEAN_MOTION_DOT":0.00047747,"MEAN_MOTION_DDOT":0}]
